LEMUR-2-FURIAUS         
1 42840U 17042R   23357.49721738  .00010476  00000+0  85174-3 0  9998
2 42840  97.3805 189.8774 0008920 305.8145  54.2249 14.99715060351075
CORVUS BC2              
1 42846U 17042X   23357.10306538  .00003997  00000+0  36069-3 0  9998
2 42846  97.3730 187.2767 0007406 304.0281  56.0237 14.96021554350950
CORVUS BC1              
1 42847U 17042Y   23357.54941341  .00005576  00000+0  49966-3 0  9999
2 42847  97.3715 188.0721 0006915 300.3549  59.6989 14.96146958351032
VRSS-2                  
1 42954U 17060A   23358.13833441  .00001802  00000+0  25689-3 0  9999
2 42954  97.7816  55.6067 0018565 168.4621 191.7020 14.77846512334461
MOHAMMED VI-A           
1 43005U 17070A   23358.16224173  .00001614  00000+0  23554-3 0  9997
2 43005  97.9615  67.4701 0001215  99.5741 260.5606 14.77123659330231
FENGYUN 3D              
1 43010U 17072A   23358.13549569  .00000220  00000+0  12649-3 0  9996
2 43010  98.8879 307.0018 0002411 105.2935 254.8507 14.19257489316440
CZ-4C R/B               
1 43012U 17072C   23357.75160852  .00000703  00000+0  15112-3 0  9993
2 43012  98.6239  60.5079 0126865  60.2365 301.1382 14.57020417324554
NOAA 20                 
1 43013U 17073A   23358.14854430  .00000186  00000+0  10919-3 0  9996
2 43013  98.7324 293.7140 0000890  56.7906 303.3355 14.19553841315925
MIRATA                  
1 43015U 17073C   23357.68072255  .00021344  00000+0  11801-2 0  9992
2 43015  97.6066 240.4348 0192900 139.5321 222.0434 14.99334349329818
MAKERSAT 0              
1 43016U 17073D   23357.64033558  .00012575  00000+0  78097-3 0  9999
2 43016  97.6069 236.9710 0212260 153.8544 207.3583 14.92931537329538
RADFXSAT (FOX-1B)       
1 43017U 17073E   23357.65997885  .00009170  00000+0  60449-3 0  9992
2 43017  97.6032 234.6207 0222717 161.5488 199.3975 14.89538906329350
EAGLESAT 1              
1 43018U 17073F   23357.64531077  .00018094  00000+0  10196-2 0  9997
2 43018  97.6130 240.6348 0196633 142.1279 219.3966 14.98236474329597
JILIN-1 04              
1 43022U 17074A   23358.19059770  .00009257  00000+0  46560-3 0  9995
2 43022  97.4957  86.5352 0007277 155.3498 204.8085 15.17431310335814
JILIN-1 05              
1 43023U 17074B   23358.14037123  .00009500  00000+0  47613-3 0  9990
2 43023  97.4975  86.9367 0007150 171.2603 188.8756 15.17547991335819
JILIN-1 06              
1 43024U 17074C   23358.17304373  .00005750  00000+0  30429-3 0  9998
2 43024  97.4970  86.3340 0009792 177.2641 182.8647 15.15790830335781
IRIDIUM 116             
1 43072U 17083C   23357.92192329  .00000565  00000+0  19450-3 0  9999
2 43072  86.3964 340.7732 0002089  91.4357 268.7078 14.34221197314277
IRIDIUM 130             
1 43073U 17083D   23357.89022152  .00000074  00000+0  19416-4 0  9990
2 43073  86.3972 340.9741 0002288  87.0235 273.1223 14.34218285314216
LKW-2                   
1 43080U 17084A   23358.14466352  .00011601  00000+0  49078-3 0  9996
2 43080  97.2512  59.9168 0009935 218.8190 141.2334 15.23308340333710
SUPERVIEW-1 03          
1 43099U 18002A   23358.20500779  .00017407  00000+0  62880-3 0  9992
2 43099  97.3950  74.1030 0003742 340.8196  19.2902 15.28530638329673
SUPERVIEW-1 04          
1 43100U 18002B   23358.15999215  .00020137  00000+0  71737-3 0  9991
2 43100  97.3968  74.3886 0000872 131.0024 229.1291 15.28962345329674
CARTOSAT-2F             
1 43111U 18004A   23358.11818223  .00009115  00000+0  43589-3 0  9997
2 43111  97.4594  55.1568 0001526 261.6042  98.5020 15.19217456329767
CARBONITE 2             
1 43115U 18004E   23358.15014923  .00017261  00000+0  49868-3 0  9997
2 43115  97.2946  65.4622 0007227 180.8563 179.2670 15.35690615330871
CORVUS BC3              
1 43118U 18004H   23357.76996676  .00060790  00000+0  10033-2 0  9996
2 43118  97.3079  73.2682 0005177 157.0740 203.0745 15.52059432331291
ARKYD 6A                
1 43130U 18004V   23357.78877301  .00195879  00000+0  13952-2 0  9995
2 43130  97.3062  80.6588 0002626 167.6765 192.4564 15.73251970331726
CNUSAIL-1               
1 43133U 18004Y   23358.18734658  .00119839  00000+0  12297-2 0  9993
2 43133  97.3094  79.0621 0003256 156.6834 203.4573 15.64543751331655
FOX-1D (AO-92)          
1 43137U 18004AC  23358.00842991  .00239560  00000+0  13612-2 0  9994
2 43137  97.3040  82.2299 0001923 182.7236 177.4021 15.78335014331847
LKW-3                   
1 43146U 18006A   23358.11348165  .00014441  00000+0  60948-3 0  9996
2 43146  97.5478 126.3579 0003444 130.7914 229.3622 15.23384176330498
ASNARO-2                
1 43152U 18007A   23358.13007962  .00015359  00000+0  66804-3 0  9999
2 43152  97.4175   2.1817 0001221 101.9127 258.2246 15.22348049329568
XIAOXIANG-2             
1 43155U 18008A   23358.15059251  .00043736  00000+0  12268-2 0  9997
2 43155  97.2715  47.0778 0010115   1.0856 359.0408 15.36397260327702
ZHOU ENLAI              
1 43156U 18008B   23358.14732768  .00051356  00000+0  13435-2 0  9992
2 43156  97.2761  47.6398 0008040   3.2272 356.9024 15.38540313327653
KIPP                    
1 43157U 18008C   23357.72002660  .00081735  00000+0  17779-2 0  9996
2 43157  97.2812  48.7025 0007170 354.6493   5.4678 15.43993135327618
QUANTUTONG 1            
1 43158U 18008D   23358.12980045  .00034898  00000+0  11357-2 0  9998
2 43158  97.2814  43.3307 0009077  10.6890 349.4543 15.31746702327405
JILIN-1 07              
1 43159U 18008E   23358.13798360  .00007180  00000+0  37435-3 0  9997
2 43159  97.2694  33.7097 0012940  34.1644 326.0420 15.16182176326879
JILIN-1 08              
1 43160U 18008F   23358.12144988  .00008142  00000+0  42709-3 0  9998
2 43160  97.2698  33.4691 0009863  48.4600 311.7478 15.15957620326868
LEMUR-2-URAMCHANSOL     
1 43183U 18014D   23357.72625927  .00015988  00000+0  99466-3 0  9990
2 43183  97.6031 258.2746 0012098 220.7477 139.2848 15.09640138322177
LEMUR-2-KADI            
1 43184U 18014E   23357.71152425  .00012633  00000+0  81599-3 0  9990
2 43184  97.5890 257.0524 0010817 205.0295 155.0411 15.08329050322125
S-NET D                 
1 43186U 18014G   23357.67284432  .00007135  00000+0  54371-3 0  9990
2 43186  97.6063 257.7650 0010209 242.3616 117.6573 15.02313024321987
S-NET B                 
1 43187U 18014H   23357.67444466  .00007325  00000+0  55803-3 0  9998
2 43187  97.6066 257.7019 0011224 238.5105 121.5024 15.02307492321985
S-NET A                 
1 43188U 18014J   23357.67413744  .00007336  00000+0  55879-3 0  9999
2 43188  97.6073 257.8014 0011019 239.2062 120.8079 15.02314056321988
S-NET C                 
1 43189U 18014K   23357.94330533  .00007433  00000+0  56590-3 0  9993
2 43189  97.6082 257.9760 0012982 231.8199 128.1857 15.02311887320575
GOMX-4B                 
1 43196U 18015E   23357.75830187  .00037915  00000+0  77850-3 0  9991
2 43196  97.5930 155.7415 0010494 242.8255 117.1924 15.45865646328134
GOMX-4A                 
1 43197U 18015F   23358.11652322  .00046528  00000+0  80539-3 0  9994
2 43197  97.5899 159.3737 0009469 233.4131 126.6249 15.50747949328412
PAZ                     
1 43215U 18020A   23358.08905896  .00004242  00000+0  20501-3 0  9994
2 43215  97.4440   2.4858 0001718  88.4893 271.6538 15.19164844323451
GOES 17                 
1 43226U 18022A   23357.86593628 -.00000079  00000+0  00000+0 0  9992
2 43226   0.0459 165.0046 0002034  91.3828  42.8000  1.00271201 21336
LKW-4                   
1 43236U 18025A   23357.94423871  .00013603  00000+0  57729-3 0  9997
2 43236  97.5356 124.2487 0001529 159.5146 200.6152 15.23214554320879
ZHUHAI-1 OHS-01         
1 43439U 18040A   23358.15335635  .00029612  00000+0  79496-3 0  9995
2 43439  97.1620  43.2997 0007739 215.7717 144.3011 15.37864669314399
ZHUHAI-1 OVS-02         
1 43440U 18040B   23358.16004240  .00027935  00000+0  77089-3 0  9995
2 43440  97.1661  43.5360 0006632 231.4181 128.6471 15.37030078314398
ZHUHAI-1 OHS-02         
1 43441U 18040C   23358.14057601  .00028093  00000+0  76056-3 0  9992
2 43441  97.1786  46.8601 0006844 249.3486 110.7025 15.37621514314402
ZHUHAI-1 OHS-04         
1 43443U 18040E   23358.13763928  .00030970  00000+0  83222-3 0  9999
2 43443  97.1679  44.4521 0003635 206.8679 153.2379 15.37849691314409
GAOFEN-6                
1 43484U 18048A   23358.17954042  .00001658  00000+0  24484-3 0  9991
2 43484  97.8836  71.9782 0009149 215.2527 144.8079 14.76554900299696
LUOJIA-1 01             
1 43485U 18048B   23358.17887263  .00004034  00000+0  53969-3 0  9993
2 43485  97.8929  75.0182 0010256 197.6471 162.4386 14.79989969299823
PAKTES 1A               
1 43529U 18056A   23358.10802179  .00003952  00000+0  40264-3 0  9999
2 43529  98.0180 112.0744 0024017 228.3504 131.5657 14.91095432296506
PRSS 1                  
1 43530U 18056B   23358.20745412  .00001775  00000+0  24958-3 0  9991
2 43530  97.8846  71.4632 0001639  93.8734 266.2665 14.78585503294380
HAIYANG-1C              
1 43609U 18068A   23358.16255378  .00000134  00000+0  62969-4 0  9996
2 43609  98.3953  63.0807 0009689 268.3243  91.6833 14.34188585277222
SSTL S1-4               
1 43618U 18071A   23358.13076170  .00001871  00000+0  17667-3 0  9991
2 43618  97.6256 244.7860 0006162 324.6793  35.4018 14.94889385287501
HAIYANG-2B              
1 43655U 18081A   23358.08076734  .00000065  00000+0  10654-3 0  9996
2 43655  99.3391   4.0874 0001603 125.7787 234.3514 13.79302837260013
CZ-4B R/B               
1 43656U 18081B   23357.51114270  .00000417  00000+0  14325-3 0  9992
2 43656  99.4496 183.4983 0206910 354.1881   5.6901 14.31036251269588
CFOSAT                  
1 43662U 18083A   23358.22065001  .00006270  00000+0  32617-3 0  9994
2 43662  97.3859  12.5496 0001060  66.6125 293.5219 15.16390480285232
2018-083B               
1 43663U 18083B   23358.14737036  .00034729  00000+0  89182-3 0  9999
2 43663  97.3579  23.9815 0006774 153.0530 207.1068 15.39210303286011
